{
    "links": {
        "self": "http://www.neowsapp.com/rest/v1/neo/3767155?api_key=iIulBulltgU6a56xZRHN4H3l9WmuAYTsLGpBGhQ2"
    },
    "id": "3767155",
    "neo_reference_id": "3767155",
    "name": "(2017 BA30)",
    "designation": "2017 BA30",
    "nasa_jpl_url": "http://ssd.jpl.nasa.gov/sbdb.cgi?sstr=3767155",
    "absolute_magnitude_h": 21.2,
    "estimated_diameter": {
        "kilometers": {
            "estimated_diameter_min": 0.1529519353,
            "estimated_diameter_max": 0.3420109247
        },
        "meters": {
            "estimated_diameter_min": 152.9519353442,
            "estimated_diameter_max": 342.0109247198
        },
        "miles": {
            "estimated_diameter_min": 0.095039897,
            "estimated_diameter_max": 0.2125156703
        },
        "feet": {
            "estimated_diameter_min": 501.8108275547,
            "estimated_diameter_max": 1122.0831222578
        }
    },
    "is_potentially_hazardous_asteroid": false,
    "close_approach_data": [
        {
            "close_approach_date": "2017-01-29",
            "close_approach_date_full": "2017-Jan-29 16:03",
            "epoch_date_close_approach": 1485705780000,
            "relative_velocity": {
                "kilometers_per_second": "20.3739400041",
                "kilometers_per_hour": "73346.1840147578",
                "miles_per_hour": "45574.4663951699"
            },
            "miss_distance": {
                "astronomical": "0.3319610066",
                "lunar": "129.1328315674",
                "kilometers": "49660659.510415942",
                "miles": "30857702.9290743196"
            },
            "orbiting_body": "Earth"
        }
    ],
    "orbital_data": {
        "orbit_id": "13",
        "orbit_determination_date": "2017-04-06 08:20:44",
        "first_observation_date": "2017-01-25",
        "last_observation_date": "2017-03-07",
        "data_arc_in_days": 41,
        "observations_used": 120,
        "orbit_uncertainty": "7",
        "minimum_orbit_intersection": ".145369",
        "jupiter_tisserand_invariant": "3.620",
        "epoch_osculation": "2459000.5",
        "eccentricity": ".4363102354624362",
        "semi_major_axis": "1.951376034529747",
        "inclination": "30.11249851411099",
        "ascending_node_longitude": "304.2318685796004",
        "orbital_period": "995.6572886916088",
        "perihelion_distance": "1.099970697428318",
        "perihelion_argument": "154.078751710081",
        "aphelion_distance": "2.802781371631176",
        "perihelion_time": "2458765.062267811948",
        "mean_anomaly": "85.12726673158637",
        "mean_motion": ".3615701949744929",
        "equinox": "J2000",
        "orbit_class": {
            "orbit_class_type": "AMO",
            "orbit_class_description": "Near-Earth asteroid orbits similar to that of 1221 Amor",
            "orbit_class_range": "1.017 AU < q (perihelion) < 1.3 AU"
        }
    },
    "is_sentry_object": false
}